[{"OBJECT_NAME":"STARLINK-30774","OBJECT_ID":"2023-203H","EPOCH":"2025-11-07T22:50:24.979200","MEAN_MOTION":15.27568498,"ECCENTRICITY":0.00015009,"INCLINATION":43.0036,"RA_OF_ASC_NODE":34.5597,"ARG_OF_PERICENTER":266.9928,"MEAN_ANOMALY":93.0752,"EPHEMERIS_TYPE":0,"CLASSIFICATION_TYPE":"U","NORAD_CAT_ID":58625,"ELEMENT_SET_NO":999,"REV_AT_EPOCH":10494,"BSTAR":-3.3057272e-5,"MEAN_MOTION_DOT":-1.171e-5,"MEAN_MOTION_DDOT":0},{"OBJECT_NAME":"STARLINK-31086","OBJECT_ID":"2023-203J","EPOCH":"2025-11-07T14:22:38.301888","MEAN_MOTION":15.27567362,"ECCENTRICITY":0.00017348,"INCLINATION":43.0032,"RA_OF_ASC_NODE":36.218,"ARG_OF_PERICENTER":248.1608,"MEAN_ANOMALY":111.9059,"EPHEMERIS_TYPE":0,"CLASSIFICATION_TYPE":"U","NORAD_CAT_ID":58626,"ELEMENT_SET_NO":999,"REV_AT_EPOCH":10489,"BSTAR":-4.2467603e-5,"MEAN_MOTION_DOT":-1.43e-5,"MEAN_MOTION_DDOT":0},{"OBJECT_NAME":"STARLINK-31065","OBJECT_ID":"2023-203K","EPOCH":"2025-11-07T22:30:03.226176","MEAN_MOTION":15.27591611,"ECCENTRICITY":0.00028474,"INCLINATION":43.0039,"RA_OF_ASC_NODE":34.4704,"ARG_OF_PERICENTER":267.7181,"MEAN_ANOMALY":92.3345,"EPHEMERIS_TYPE":0,"CLASSIFICATION_TYPE":"U","NORAD_CAT_ID":58627,"ELEMENT_SET_NO":999,"REV_AT_EPOCH":10494,"BSTAR":-0.0003294111,"MEAN_MOTION_DOT":-9.32e-5,"MEAN_MOTION_DDOT":0},{"OBJECT_NAME":"STARLINK-31092","OBJECT_ID":"2023-203L","EPOCH":"2025-11-07T22:44:52.786752","MEAN_MOTION":15.27560523,"ECCENTRICITY":6.056e-5,"INCLINATION":43.0009,"RA_OF_ASC_NODE":34.5298,"ARG_OF_PERICENTER":276.8493,"MEAN_ANOMALY":83.229,"EPHEMERIS_TYPE":0,"CLASSIFICATION_TYPE":"U","NORAD_CAT_ID":58628,"ELEMENT_SET_NO":999,"REV_AT_EPOCH":10494,"BSTAR":-1.5756709e-5,"MEAN_MOTION_DOT":-6.95e-6,"MEAN_MOTION_DDOT":0},{"OBJECT_NAME":"STARLINK-31091","OBJECT_ID":"2023-203M","EPOCH":"2025-11-06T08:03:33.145920","MEAN_MOTION":15.27581003,"ECCENTRICITY":9.642e-5,"INCLINATION":42.9999,"RA_OF_ASC_NODE":47.3835,"ARG_OF_PERICENTER":286.0277,"MEAN_ANOMALY":74.0468,"EPHEMERIS_TYPE":0,"CLASSIFICATION_TYPE":"U","NORAD_CAT_ID":58629,"ELEMENT_SET_NO":999,"REV_AT_EPOCH":10465,"BSTAR":-5.622543e-6,"MEAN_MOTION_DOT":-4.17e-6,"MEAN_MOTION_DDOT":0},{"OBJECT_NAME":"STARLINK-31084","OBJECT_ID":"2023-203N","EPOCH":"2025-11-07T23:11:54.246048","MEAN_MOTION":15.27572725,"ECCENTRICITY":0.00017909,"INCLINATION":43.003,"RA_OF_ASC_NODE":38.1202,"ARG_OF_PERICENTER":271.4198,"MEAN_ANOMALY":88.6449,"EPHEMERIS_TYPE":0,"CLASSIFICATION_TYPE":"U","NORAD_CAT_ID":58630,"ELEMENT_SET_NO":999,"REV_AT_EPOCH":10490,"BSTAR":-0.00011561329,"MEAN_MOTION_DOT":-3.442e-5,"MEAN_MOTION_DDOT":0},{"OBJECT_NAME":"STARLINK-31064","OBJECT_ID":"2023-203P","EPOCH":"2025-11-07T12:24:01.241856","MEAN_MOTION":15.25903308,"ECCENTRICITY":0.00011546,"INCLINATION":42.997,"RA_OF_ASC_NODE":40.7607,"ARG_OF_PERICENTER":116.445,"MEAN_ANOMALY":243.6519,"EPHEMERIS_TYPE":0,"CLASSIFICATION_TYPE":"U","NORAD_CAT_ID":58631,"ELEMENT_SET_NO":999,"REV_AT_EPOCH":10600,"BSTAR":0.00044213062,"MEAN_MOTION_DOT":0.00011323,"MEAN_MOTION_DDOT":0},{"OBJECT_NAME":"STARLINK-31081","OBJECT_ID":"2023-203Q","EPOCH":"2025-11-07T22:58:57.848736","MEAN_MOTION":15.27578342,"ECCENTRICITY":5.774e-5,"INCLINATION":43.0005,"RA_OF_ASC_NODE":38.0474,"ARG_OF_PERICENTER":255.6445,"MEAN_ANOMALY":104.4342,"EPHEMERIS_TYPE":0,"CLASSIFICATION_TYPE":"U","NORAD_CAT_ID":58632,"ELEMENT_SET_NO":999,"REV_AT_EPOCH":10613,"BSTAR":3.0981704e-5,"MEAN_MOTION_DOT":5.91e-6,"MEAN_MOTION_DDOT":0},{"OBJECT_NAME":"STARLINK-31022","OBJECT_ID":"2023-203R","EPOCH":"2025-11-08T12:01:08.757120","MEAN_MOTION":15.25927418,"ECCENTRICITY":0.0001383,"INCLINATION":43.0049,"RA_OF_ASC_NODE":35.249,"ARG_OF_PERICENTER":273.2575,"MEAN_ANOMALY":86.8118,"EPHEMERIS_TYPE":0,"CLASSIFICATION_TYPE":"U","NORAD_CAT_ID":58633,"ELEMENT_SET_NO":999,"REV_AT_EPOCH":10621,"BSTAR":9.1886e-5,"MEAN_MOTION_DOT":2.148e-5,"MEAN_MOTION_DDOT":0},{"OBJECT_NAME":"STARLINK-31025","OBJECT_ID":"2023-203S","EPOCH":"2025-11-07T22:20:48.121728","MEAN_MOTION":15.27573215,"ECCENTRICITY":0.00018602,"INCLINATION":43.0015,"RA_OF_ASC_NODE":34.3378,"ARG_OF_PERICENTER":53.7966,"MEAN_ANOMALY":306.3058,"EPHEMERIS_TYPE":0,"CLASSIFICATION_TYPE":"U","NORAD_CAT_ID":58634,"ELEMENT_SET_NO":999,"REV_AT_EPOCH":10617,"BSTAR":-4.8243564e-5,"MEAN_MOTION_DOT":-1.589e-5,"MEAN_MOTION_DDOT":0},{"OBJECT_NAME":"STARLINK-31018","OBJECT_ID":"2023-203T","EPOCH":"2025-11-08T12:00:40.803264","MEAN_MOTION":15.27591358,"ECCENTRICITY":0.0001306,"INCLINATION":43.0012,"RA_OF_ASC_NODE":31.8073,"ARG_OF_PERICENTER":306.096,"MEAN_ANOMALY":53.9771,"EPHEMERIS_TYPE":0,"CLASSIFICATION_TYPE":"U","NORAD_CAT_ID":58635,"ELEMENT_SET_NO":999,"REV_AT_EPOCH":10625,"BSTAR":0.000317,"MEAN_MOTION_DOT":8.474e-5,"MEAN_MOTION_DDOT":0},{"OBJECT_NAME":"STARLINK-31008","OBJECT_ID":"2023-203U","EPOCH":"2025-11-08T12:04:22.285344","MEAN_MOTION":15.27565976,"ECCENTRICITY":6.42e-5,"INCLINATION":43.0001,"RA_OF_ASC_NODE":31.8238,"ARG_OF_PERICENTER":271.2512,"MEAN_ANOMALY":88.8266,"EPHEMERIS_TYPE":0,"CLASSIFICATION_TYPE":"U","NORAD_CAT_ID":58636,"ELEMENT_SET_NO":999,"REV_AT_EPOCH":10625,"BSTAR":-7.5904e-5,"MEAN_MOTION_DOT":-2.349e-5,"MEAN_MOTION_DDOT":0},{"OBJECT_NAME":"STARLINK-31077","OBJECT_ID":"2023-203V","EPOCH":"2025-11-07T13:56:55.810464","MEAN_MOTION":15.27575208,"ECCENTRICITY":0.00013363,"INCLINATION":43.0031,"RA_OF_ASC_NODE":36.9476,"ARG_OF_PERICENTER":267.9372,"MEAN_ANOMALY":92.1327,"EPHEMERIS_TYPE":0,"CLASSIFICATION_TYPE":"U","NORAD_CAT_ID":58637,"ELEMENT_SET_NO":999,"REV_AT_EPOCH":10611,"BSTAR":-3.1315053e-5,"MEAN_MOTION_DOT":-1.124e-5,"MEAN_MOTION_DDOT":0},{"OBJECT_NAME":"STARLINK-31078","OBJECT_ID":"2023-203W","EPOCH":"2025-11-08T11:49:33.837600","MEAN_MOTION":15.27578419,"ECCENTRICITY":0.0001376,"INCLINATION":43.0054,"RA_OF_ASC_NODE":31.746,"ARG_OF_PERICENTER":261.532,"MEAN_ANOMALY":98.5376,"EPHEMERIS_TYPE":0,"CLASSIFICATION_TYPE":"U","NORAD_CAT_ID":58638,"ELEMENT_SET_NO":999,"REV_AT_EPOCH":10502,"BSTAR":1.0792e-5,"MEAN_MOTION_DOT":3.5e-7,"MEAN_MOTION_DDOT":0},{"OBJECT_NAME":"STARLINK-31070","OBJECT_ID":"2023-203X","EPOCH":"2025-11-08T12:09:54.844992","MEAN_MOTION":15.27580092,"ECCENTRICITY":9.01e-5,"INCLINATION":43.0027,"RA_OF_ASC_NODE":31.8501,"ARG_OF_PERICENTER":247.7911,"MEAN_ANOMALY":112.2845,"EPHEMERIS_TYPE":0,"CLASSIFICATION_TYPE":"U","NORAD_CAT_ID":58639,"ELEMENT_SET_NO":999,"REV_AT_EPOCH":10502,"BSTAR":7.3478e-5,"MEAN_MOTION_DOT":1.76e-5,"MEAN_MOTION_DDOT":0},{"OBJECT_NAME":"STARLINK-31090","OBJECT_ID":"2023-203Y","EPOCH":"2025-11-07T13:39:36.758016","MEAN_MOTION":15.27571219,"ECCENTRICITY":9.892e-5,"INCLINATION":42.999,"RA_OF_ASC_NODE":29.0709,"ARG_OF_PERICENTER":292.2751,"MEAN_ANOMALY":67.7996,"EPHEMERIS_TYPE":0,"CLASSIFICATION_TYPE":"U","NORAD_CAT_ID":58640,"ELEMENT_SET_NO":999,"REV_AT_EPOCH":10498,"BSTAR":-8.060393e-5,"MEAN_MOTION_DOT":-2.479e-5,"MEAN_MOTION_DDOT":0}]
