STARLINK-30774          
1 58625U 23203H   25311.95167800 -.00001171  00000+0 -33057-4 0  9997
2 58625  43.0036  34.5597 0001500 266.9928  93.0752 15.27568498104944
STARLINK-31086          
1 58626U 23203J   25311.59905442 -.00001430  00000+0 -42468-4 0  9994
2 58626  43.0032  36.2180 0001734 248.1608 111.9059 15.27567362104897
STARLINK-31065          
1 58627U 23203K   25311.93753734 -.00009320  00000+0 -32941-3 0  9998
2 58627  43.0039  34.4704 0002847 267.7181  92.3345 15.27591611104946
STARLINK-31092          
1 58628U 23203L   25311.94783318 -.00000695  00000+0 -15757-4 0  9994
2 58628  43.0009  34.5298 0000605 276.8493  83.2290 15.27560523104946
STARLINK-31091          
1 58629U 23203M   25310.33580030 -.00000417  00000+0 -56225-5 0  9991
2 58629  42.9999  47.3835 0000964 286.0277  74.0468 15.27581003104652
STARLINK-31084          
1 58630U 23203N   25311.96660007 -.00003442  00000+0 -11561-3 0  9999
2 58630  43.0030  38.1202 0001790 271.4198  88.6449 15.27572725104905
STARLINK-31064          
1 58631U 23203P   25311.51668104  .00011323  00000+0  44213-3 0  9992
2 58631  42.9970  40.7607 0001154 116.4450 243.6519 15.25903308106005
STARLINK-31081          
1 58632U 23203Q   25311.95761399  .00000591  00000+0  30982-4 0  9995
2 58632  43.0005  38.0474 0000577 255.6445 104.4342 15.27578342106137
STARLINK-31022          
1 58633U 23203R   25312.50079580  .00002148  00000+0  91886-4 0  9992
2 58633  43.0049  35.2490 0001383 273.2575  86.8118 15.25927418106212
STARLINK-31025          
1 58634U 23203S   25311.93111252 -.00001589  00000+0 -48244-4 0  9992
2 58634  43.0015  34.3378 0001860  53.7966 306.3058 15.27573215106178
STARLINK-31018          
1 58635U 23203T   25312.50047226  .00008474  00000+0  31700-3 0  9992
2 58635  43.0012  31.8073 0001306 306.0960  53.9771 15.27591358106257
STARLINK-31008          
1 58636U 23203U   25312.50303571 -.00002349  00000+0 -75904-4 0  9993
2 58636  43.0001  31.8238 0000642 271.2512  88.8266 15.27565976106250
STARLINK-31077          
1 58637U 23203V   25311.58120151 -.00001124  00000+0 -31315-4 0  9990
2 58637  43.0031  36.9476 0001336 267.9372  92.1327 15.27575208106111
STARLINK-31078          
1 58638U 23203W   25312.49275275  .00000035  00000+0  10792-4 0  9994
2 58638  43.0054  31.7460 0001376 261.5320  98.5376 15.27578419105020
STARLINK-31070          
1 58639U 23203X   25312.50688478  .00001760  00000+0  73478-4 0  9996
2 58639  43.0027  31.8501 0000901 247.7911 112.2845 15.27580092105028
STARLINK-31090          
1 58640U 23203Y   25311.56917544 -.00002479  00000+0 -80604-4 0  9991
2 58640  42.9990  29.0709 0000989 292.2751  67.7996 15.27571219104985
